      2.10          N: GNSS NAV DATA                        RINEX VERSION / TYPE
fic2rin                                 11/04/2019 00:19:21 PGM / RUN BY / DATE
                                                            END OF HEADER
29 19 11  3 16  0  0.0 5.395337939262e-05-1.000444171950e-11 0.000000000000e+00
    8.000000000000e+01 2.162500000000e+01 3.928020760689e-09 8.610853316147e-01
    1.151114702225e-06 1.105254283175e-03 4.667788743973e-06 5.153671876907e+03
    5.760000000000e+04-1.117587089539e-08-5.619749550269e-01 5.587935447693e-09
    9.859433957228e-01 3.003125000000e+02 2.054757980232e+00-7.945330954926e-09
    1.475061442230e-10 1.000000000000e+00 2.078000000000e+03 0.000000000000e+00
    2.400000000000e+00 0.000000000000e+00-9.778887033463e-09 8.000000000000e+01
    5.040000000000e+04 4.000000000000e+00
32 19 11  3 16  0  0.0 1.130909658968e-04 1.239186531166e-11 0.000000000000e+00
    9.600000000000e+01 8.031250000000e+00 4.839487298357e-09 1.460960608565e+00
    4.451721906662e-07 3.259272081777e-03 7.823109626770e-06 5.153641368866e+03
    5.760000000000e+04-4.284083843231e-08 2.505409420565e+00 1.136213541031e-07
    9.568508237175e-01 2.273437500000e+02-2.535420904080e+00-8.145339286076e-09
    4.000166622996e-11 1.000000000000e+00 2.078000000000e+03 0.000000000000e+00
    2.400000000000e+00 0.000000000000e+00 4.656612873077e-10 9.600000000000e+01
    5.040000000000e+04 4.000000000000e+00
28 19 11  3 16  0  0.0 7.565650157630e-04-1.591615728103e-12 0.000000000000e+00
    5.100000000000e+01 6.262500000000e+01 3.918377501865e-09 1.466180755239e+00
    2.931803464890e-06 1.913100725506e-02 7.880851626396e-06 5.153710077286e+03
    5.760000000000e+04 1.341104507446e-07-1.584523742940e+00-4.898756742477e-07
    9.799315689861e-01 2.345312500000e+02-1.444713849994e+00-7.793896075627e-09
   -6.928860043404e-11 1.000000000000e+00 2.078000000000e+03 0.000000000000e+00
    3.400000000000e+00 0.000000000000e+00-1.117587089539e-08 5.100000000000e+01
    5.040000000000e+04 4.000000000000e+00
20 19 11  3 16  0  0.0 5.273735150695e-04 1.136868377216e-13 0.000000000000e+00
    1.040000000000e+02-4.862500000000e+01 5.167715256083e-09-1.903971276046e+00
   -2.453103661537e-06 5.029572057538e-03 8.475035429001e-06 5.153624752045e+03
    5.760000000000e+04-1.061707735062e-07 1.338961939265e+00 1.862645149231e-09
    9.316935774172e-01 2.043750000000e+02 2.475031884224e+00-8.277844805463e-09
    2.110802209099e-10 1.000000000000e+00 2.078000000000e+03 0.000000000000e+00
    3.400000000000e+00 0.000000000000e+00-8.381903171539e-09 1.040000000000e+02
    5.040000000000e+04 4.000000000000e+00
18 19 11  3 16  0  0.0 9.764125570655e-05 2.614797267597e-12 0.000000000000e+00
    9.500000000000e+01-6.128125000000e+01 4.664122850867e-09-1.779059028378e+00
   -2.888962626457e-06 1.565070124343e-02 5.334615707397e-06 5.153667667389e+03
    5.760000000000e+04 2.272427082062e-07 3.658497892379e-01 2.291053533554e-07
    9.563519174504e-01 2.705000000000e+02 1.444436270066e+00-8.086765417668e-09
    1.017899542459e-10 1.000000000000e+00 2.078000000000e+03 0.000000000000e+00
    3.400000000000e+00 6.300000000000e+01-5.587935447693e-09 9.500000000000e+01
    5.040000000000e+04 4.000000000000e+00
13 19 11  3 15 59 44.0-3.504380583763e-05 2.273736754432e-12 0.000000000000e+00
    2.700000000000e+01 9.531250000000e+00 4.625906973308e-09-1.894706586592e-01
    5.923211574554e-07 4.000477492809e-03 7.556751370430e-06 5.153663171768e+03
    5.758400000000e+04-1.490116119385e-08 2.637621970308e+00-1.117587089539e-08
    9.680596010995e-01 2.345625000000e+02 1.193143002052e+00-8.013548082158e-09
   -5.714523747137e-12 1.000000000000e+00 2.078000000000e+03 0.000000000000e+00
    2.400000000000e+00 0.000000000000e+00-1.117587089539e-08 2.700000000000e+01
    5.148000000000e+04 4.000000000000e+00
18 19 11  3 15 59 44.0 9.763985872269e-05 2.614797267597e-12 0.000000000000e+00
    3.100000000000e+01-6.128125000000e+01 4.664122850867e-09-1.781392362234e+00
   -2.888962626457e-06 1.565069879871e-02 5.334615707397e-06 5.153667676926e+03
    5.758400000000e+04 2.272427082062e-07 3.658499369926e-01 2.291053533554e-07
    9.563519042841e-01 2.705000000000e+02 1.444435782914e+00-8.086765417668e-09
    1.021471119801e-10 1.000000000000e+00 2.078000000000e+03 0.000000000000e+00
    2.400000000000e+00 6.300000000000e+01-5.587935447693e-09 3.100000000000e+01
    5.163000000000e+04 4.000000000000e+00
20 19 11  3 15 59 44.0 5.273744463921e-04 1.136868377216e-13 0.000000000000e+00
    7.000000000000e+00-4.862500000000e+01 5.167715256083e-09-1.906304899559e+00
   -2.453103661537e-06 5.029570194893e-03 8.475035429001e-06 5.153624752045e+03
    5.758400000000e+04-1.061707735062e-07 1.338962082631e+00 1.862645149231e-09
    9.316935627880e-01 2.043750000000e+02 2.475031669175e+00-8.277487647728e-09
    2.114373786441e-10 1.000000000000e+00 2.078000000000e+03 0.000000000000e+00
    2.400000000000e+00 0.000000000000e+00-8.381903171539e-09 7.000000000000e+00
    5.178000000000e+04 4.000000000000e+00
20 19 11  3 17 59 44.0 5.273753777146e-04 1.136868377216e-13 0.000000000000e+00
    8.000000000000e+00-6.143750000000e+01 5.195930717085e-09-8.564648145802e-01
   -3.285706043243e-06 5.029419437051e-03 8.095055818558e-06 5.153621181488e+03
    6.478400000000e+04-4.656612873077e-08 1.338902026918e+00-5.029141902924e-08
    9.316951544429e-01 2.095937500000e+02 2.475408708514e+00-8.319275102629e-09
    2.457245211269e-10 1.000000000000e+00 2.078000000000e+03 0.000000000000e+00
    2.400000000000e+00 0.000000000000e+00-8.381903171539e-09 8.000000000000e+00
    5.760000000000e+04 4.000000000000e+00
13 19 11  3 17 59 44.0-3.502750769258e-05 2.273736754432e-12 0.000000000000e+00
    2.800000000000e+01 1.043750000000e+01 4.651979487904e-09 8.606928233794e-01
    6.463378667831e-07 4.000889952295e-03 7.867813110352e-06 5.153663970947e+03
    6.478400000000e+04-2.421438694000e-08 2.637563920256e+00 6.705522537231e-08
    9.680597707980e-01 2.316250000000e+02 1.193167624427e+00-8.011047978018e-09
    6.107397254753e-11 1.000000000000e+00 2.078000000000e+03 0.000000000000e+00
    2.400000000000e+00 0.000000000000e+00-1.117587089539e-08 2.800000000000e+01
    5.760000000000e+04 4.000000000000e+00
18 19 11  3 17 59 44.0 9.765895083547e-05 2.614797267597e-12 0.000000000000e+00
    3.200000000000e+01-5.425000000000e+01 4.745911971998e-09-7.311725797928e-01
   -2.725049853325e-06 1.565125328489e-02 5.718320608139e-06 5.153668943405e+03
    6.478400000000e+04-1.695007085800e-07 3.657897569316e-01 1.247972249985e-07
    9.563508787785e-01 2.732812500000e+02 1.444402286479e+00-8.505354282146e-09
    1.396486740707e-10 1.000000000000e+00 2.078000000000e+03 0.000000000000e+00
    2.400000000000e+00 6.300000000000e+01-5.587935447693e-09 3.200000000000e+01
    5.760000000000e+04 4.000000000000e+00
 2 19 11  3 18  0  0.0-3.393804654479e-04-7.730704965070e-12 0.000000000000e+00
    8.200000000000e+01-5.800000000000e+01 4.786985111430e-09-1.499891431927e-01
   -3.138557076454e-06 1.931760471780e-02 5.293637514114e-06 5.153566930771e+03
    6.480000000000e+04-2.998858690262e-07 3.523311358917e-01 1.806765794754e-07
    9.568763779705e-01 2.801250000000e+02-1.704484166516e+00-8.629645173646e-09
    1.003613233091e-10 1.000000000000e+00 2.078000000000e+03 0.000000000000e+00
    2.400000000000e+00 0.000000000000e+00-1.769512891769e-08 8.200000000000e+01
    5.760000000000e+04 4.000000000000e+00
 1 19 11  3 18  0  0.0-1.850496046245e-04-1.284661266254e-11 0.000000000000e+00
    6.200000000000e+01-6.365625000000e+01 4.224461680071e-09-4.451068096510e-01
   -3.194436430931e-06 9.129439713433e-03 5.828216671944e-06 5.153644887924e+03
    6.480000000000e+04 3.539025783539e-08 4.243479494411e-01 1.098960638046e-07
    9.777731474677e-01 2.775937500000e+02 7.667326658131e-01-8.109980670390e-09
    7.607459738377e-11 1.000000000000e+00 2.078000000000e+03 0.000000000000e+00
    2.400000000000e+00 0.000000000000e+00 5.587935447693e-09 6.200000000000e+01
    5.760000000000e+04 4.000000000000e+00
 5 19 11  3 18  0  0.0-3.025401383638e-06-4.547473508865e-13 0.000000000000e+00
    3.300000000000e+01-6.575000000000e+01 4.786270795962e-09 2.395025244106e+00
   -3.363937139511e-06 5.831671413034e-03 9.266659617424e-06 5.153543375015e+03
    6.480000000000e+04-6.891787052155e-08 1.436975291309e+00-8.754432201385e-08
    9.505569273572e-01 1.960000000000e+02 7.993781347937e-01-7.976046520067e-09
    2.300095808223e-10 1.000000000000e+00 2.078000000000e+03 0.000000000000e+00
    2.400000000000e+00 0.000000000000e+00-1.117587089539e-08 3.300000000000e+01
    5.760000000000e+04 4.000000000000e+00
 3 19 11  3 18  0  0.0-3.131153061986e-05-5.456968210638e-12 0.000000000000e+00
    4.500000000000e+01-4.228125000000e+01 4.554832584203e-09-1.613211069082e+00
   -2.222135663033e-06 2.586980699562e-03 8.782371878624e-06 5.153678993225e+03
    6.480000000000e+04 5.215406417847e-08 1.466036248191e+00-3.725290298462e-08
    9.636682618855e-01 2.124687500000e+02 7.878690188671e-01-7.919972755798e-09
    2.482246252663e-10 1.000000000000e+00 2.078000000000e+03 0.000000000000e+00
    2.400000000000e+00 0.000000000000e+00 2.328306436539e-09 4.500000000000e+01
    5.760000000000e+04 4.000000000000e+00
10 19 11  3 18  0  0.0-1.202709972858e-04-1.500666257925e-11 0.000000000000e+00
    2.300000000000e+01-5.646875000000e+01 4.451256841286e-09-2.422916214700e+00
   -3.008171916008e-06 5.017006071284e-03 8.789822459221e-06 5.153664037704e+03
    6.480000000000e+04 9.313225746155e-09 1.462882912179e+00-8.754432201385e-08
    9.636574889567e-01 2.143437500000e+02-2.741852270684e+00-7.831397637718e-09
    2.435815747217e-10 1.000000000000e+00 2.078000000000e+03 0.000000000000e+00
    2.400000000000e+00 0.000000000000e+00 1.862645149231e-09 2.300000000000e+01
    5.760000000000e+04 4.000000000000e+00
